{
  "type": "FeatureCollection",
  "features": [
    {
      "type": "Feature",
      "properties": {
        "norad_id": 66607,
        "name": "STARLINK-35993",
        "group": "last-30-days",
        "lat": -38.23176281553137,
        "lon": 102.33137750102402,
        "alt_km": 374.0122372745527,
        "timestamp": "2025-12-07T07:31:35.086927+00:00",
        "meta_object_name": "STARLINK-35993",
        "meta_object_id": "2025-270V",
        "meta_epoch": "2025-12-06T22:00:01.999584",
        "meta_mean_motion": 15.67148285,
        "meta_eccentricity": 0.00013215,
        "meta_inclination": 42.9991,
        "meta_ra_of_asc_node": 226.9861,
        "meta_arg_of_pericenter": 260.6281,
        "meta_mean_anomaly": 263.8086,
        "meta_ephemeris_type": 0,
        "meta_classification_type": "U",
        "meta_norad_cat_id": 66607,
        "meta_element_set_no": 999,
        "meta_rev_at_epoch": 336,
        "meta_bstar": -0.0206213,
        "meta_mean_motion_dot": -0.01999908,
        "meta_mean_motion_ddot": 0,
        "tle_line1": "1 66607U 25270V   25340.91668981 -.01999908  00000+0 -20621-1 0  9991",
        "tle_line2": "2 66607  42.9991 226.9861 0001321 260.6281 263.8086 15.67148285  3369"
      },
      "geometry": {
        "type": "Point",
        "coordinates": [
          102.33137750102402,
          -38.23176281553137
        ]
      }
    },
    {
      "type": "Feature",
      "properties": {
        "norad_id": 66608,
        "name": "STARLINK-36036",
        "group": "last-30-days",
        "lat": -39.53529546540834,
        "lon": 106.9473236455471,
        "alt_km": 374.0857865992248,
        "timestamp": "2025-12-07T07:31:35.086937+00:00",
        "meta_object_name": "STARLINK-36036",
        "meta_object_id": "2025-270W",
        "meta_epoch": "2025-12-06T22:00:01.999584",
        "meta_mean_motion": 15.6715134,
        "meta_eccentricity": 0.00012855,
        "meta_inclination": 42.9987,
        "meta_ra_of_asc_node": 226.9765,
        "meta_arg_of_pericenter": 260.7661,
        "meta_mean_anomaly": 267.5032,
        "meta_ephemeris_type": 0,
        "meta_classification_type": "U",
        "meta_norad_cat_id": 66608,
        "meta_element_set_no": 999,
        "meta_rev_at_epoch": 330,
        "meta_bstar": -0.020684588,
        "meta_mean_motion_dot": -0.02005494,
        "meta_mean_motion_ddot": 0,
        "tle_line1": "1 66608U 25270W   25340.91668981 -.02005494  00000+0 -20685-1 0  9991",
        "tle_line2": "2 66608  42.9987 226.9765 0001285 260.7661 267.5032 15.67151340  3302"
      },
      "geometry": {
        "type": "Point",
        "coordinates": [
          106.9473236455471,
          -39.53529546540834
        ]
      }
    },
    {
      "type": "Feature",
      "properties": {
        "norad_id": 66609,
        "name": "STARLINK-36034",
        "group": "last-30-days",
        "lat": -40.11769496756164,
        "lon": 109.32042644837763,
        "alt_km": 374.13515181514595,
        "timestamp": "2025-12-07T07:31:35.086947+00:00",
        "meta_object_name": "STARLINK-36034",
        "meta_object_id": "2025-270X",
        "meta_epoch": "2025-12-06T22:00:01.999584",
        "meta_mean_motion": 15.67150828,
        "meta_eccentricity": 0.00012363,
        "meta_inclination": 42.9989,
        "meta_ra_of_asc_node": 226.9721,
        "meta_arg_of_pericenter": 261.4995,
        "meta_mean_anomaly": 268.6874,
        "meta_ephemeris_type": 0,
        "meta_classification_type": "U",
        "meta_norad_cat_id": 66609,
        "meta_element_set_no": 999,
        "meta_rev_at_epoch": 330,
        "meta_bstar": -0.020652148,
        "meta_mean_motion_dot": -0.02002655,
        "meta_mean_motion_ddot": 0,
        "tle_line1": "1 66609U 25270X   25340.91668981 -.02002655  00000+0 -20652-1 0  9992",
        "tle_line2": "2 66609  42.9989 226.9721 0001236 261.4995 268.6874 15.67150828  3307"
      },
      "geometry": {
        "type": "Point",
        "coordinates": [
          109.32042644837763,
          -40.11769496756164
        ]
      }
    },
    {
      "type": "Feature",
      "properties": {
        "norad_id": 66610,
        "name": "STARLINK-35680",
        "group": "last-30-days",
        "lat": -40.65000138101003,
        "lon": 111.72930031194771,
        "alt_km": 374.1246414206453,
        "timestamp": "2025-12-07T07:31:35.086957+00:00",
        "meta_object_name": "STARLINK-35680",
        "meta_object_id": "2025-270Y",
        "meta_epoch": "2025-12-06T22:00:01.999584",
        "meta_mean_motion": 15.67150028,
        "meta_eccentricity": 0.00012865,
        "meta_inclination": 42.999,
        "meta_ra_of_asc_node": 226.9669,
        "meta_arg_of_pericenter": 262.2387,
        "meta_mean_anomaly": 269.8666,
        "meta_ephemeris_type": 0,
        "meta_classification_type": "U",
        "meta_norad_cat_id": 66610,
        "meta_element_set_no": 999,
        "meta_rev_at_epoch": 357,
        "meta_bstar": -0.02065557,
        "meta_mean_motion_dot": -0.02002927,
        "meta_mean_motion_ddot": 0,
        "tle_line1": "1 66610U 25270Y   25340.91668981 -.02002927  00000+0 -20656-1 0  9990",
        "tle_line2": "2 66610  42.9990 226.9669 0001286 262.2387 269.8666 15.67150028  3574"
      },
      "geometry": {
        "type": "Point",
        "coordinates": [
          111.72930031194771,
          -40.65000138101003
        ]
      }
    },
    {
      "type": "Feature",
      "properties": {
        "norad_id": 66611,
        "name": "STARLINK-35583",
        "group": "last-30-days",
        "lat": -41.13115047365004,
        "lon": 114.1768642986609,
        "alt_km": 374.16580323024664,
        "timestamp": "2025-12-07T07:31:35.086966+00:00",
        "meta_object_name": "STARLINK-35583",
        "meta_object_id": "2025-270Z",
        "meta_epoch": "2025-12-06T22:00:01.999584",
        "meta_mean_motion": 15.67151631,
        "meta_eccentricity": 0.00012421,
        "meta_inclination": 42.9987,
        "meta_ra_of_asc_node": 226.9619,
        "meta_arg_of_pericenter": 261.1176,
        "meta_mean_anomaly": 272.9034,
        "meta_ephemeris_type": 0,
        "meta_classification_type": "U",
        "meta_norad_cat_id": 66611,
        "meta_element_set_no": 999,
        "meta_rev_at_epoch": 357,
        "meta_bstar": -0.020669129,
        "meta_mean_motion_dot": -0.02004165,
        "meta_mean_motion_ddot": 0,
        "tle_line1": "1 66611U 25270Z   25340.91668981 -.02004165  00000+0 -20669-1 0  9991",
        "tle_line2": "2 66611  42.9987 226.9619 0001242 261.1176 272.9034 15.67151631  3577"
      },
      "geometry": {
        "type": "Point",
        "coordinates": [
          114.1768642986609,
          -41.13115047365004
        ]
      }
    },
    {
      "type": "Feature",
      "properties": {
        "norad_id": 66612,
        "name": "STARLINK-36039",
        "group": "last-30-days",
        "lat": -41.55978506599903,
        "lon": 116.65751962371772,
        "alt_km": 374.1648944105773,
        "timestamp": "2025-12-07T07:31:35.086979+00:00",
        "meta_object_name": "STARLINK-36039",
        "meta_object_id": "2025-270AA",
        "meta_epoch": "2025-12-06T22:00:01.999584",
        "meta_mean_motion": 15.67148346,
        "meta_eccentricity": 0.00012624,
        "meta_inclination": 42.9988,
        "meta_ra_of_asc_node": 226.9567,
        "meta_arg_of_pericenter": 260.2371,
        "meta_mean_anomaly": 275.7025,
        "meta_ephemeris_type": 0,
        "meta_classification_type": "U",
        "meta_norad_cat_id": 66612,
        "meta_element_set_no": 999,
        "meta_rev_at_epoch": 346,
        "meta_bstar": -0.020622407,
        "meta_mean_motion_dot": -0.01999961,
        "meta_mean_motion_ddot": 0,
        "tle_line1": "1 66612U 25270AA  25340.91668981 -.01999961  00000+0 -20622-1 0  9997",
        "tle_line2": "2 66612  42.9988 226.9567 0001262 260.2371 275.7025 15.67148346  3468"
      },
      "geometry": {
        "type": "Point",
        "coordinates": [
          116.65751962371772,
          -41.55978506599903
        ]
      }
    },
    {
      "type": "Feature",
      "properties": {
        "norad_id": 66613,
        "name": "STARLINK-36037",
        "group": "last-30-days",
        "lat": -41.93433446610685,
        "lon": 119.16999830541127,
        "alt_km": 374.20412622393724,
        "timestamp": "2025-12-07T07:31:35.086989+00:00",
        "meta_object_name": "STARLINK-36037",
        "meta_object_id": "2025-270AB",
        "meta_epoch": "2025-12-06T22:00:01.999584",
        "meta_mean_motion": 15.67149473,
        "meta_eccentricity": 0.00012294,
        "meta_inclination": 42.999,
        "meta_ra_of_asc_node": 226.952,
        "meta_arg_of_pericenter": 261.2173,
        "meta_mean_anomaly": 276.6397,
        "meta_ephemeris_type": 0,
        "meta_classification_type": "U",
        "meta_norad_cat_id": 66613,
        "meta_element_set_no": 999,
        "meta_rev_at_epoch": 346,
        "meta_bstar": -0.020643451,
        "meta_mean_motion_dot": -0.0200181,
        "meta_mean_motion_ddot": 0,
        "tle_line1": "1 66613U 25270AB  25340.91668981 -.02001810  00000+0 -20643-1 0  9999",
        "tle_line2": "2 66613  42.9990 226.9520 0001229 261.2173 276.6397 15.67149473  3469"
      },
      "geometry": {
        "type": "Point",
        "coordinates": [
          119.16999830541127,
          -41.93433446610685
        ]
      }
    }
  ]
}